H1 CPF  1  HTS 2022  1  8 12  5081 larets           NONE
H2  0304206 5557    27944 2022 01 08  0  0  0 2022 01 13  0  0  0   180 1 1  0 0 0
H5  0.0560 
H9 
10 0 59587  47880.00000  0   -5502580.196   -1659903.341   -4115750.470
10 0 59587  48060.00000  0   -6225998.336   -1544597.240   -2964472.241
10 0 59587  48240.00000  0   -6719295.294   -1357214.795   -1704745.307
10 0 59587  48420.00000  0   -6962353.603   -1110771.077    -382537.764
10 0 59587  48600.00000  0   -6944568.095    -820878.835     953703.657
10 0 59587  48780.00000  0   -6665366.819    -504924.938    2254873.257
10 0 59587  48960.00000  0   -6134310.102    -181164.490    3473074.398
10 0 59587  49140.00000  0   -5370756.011     132221.628    4563448.598
10 0 59587  49320.00000  0   -4403107.203     418052.840    5485875.919
10 0 59587  49500.00000  0   -3267689.108     661009.734    6206470.381
10 0 59587  49680.00000  0   -2007319.276     848386.818    6698821.786
10 0 59587  49860.00000  0    -669632.207     970702.066    6944943.602
10 0 59587  50040.00000  0     694764.436    1022140.307    6935898.752
10 0 59587  50220.00000  0    2034226.784    1000812.236    6672099.501
10 0 59587  50400.00000  0    3298043.943     908822.203    6163282.117
10 0 59587  50580.00000  0    4438376.866     752141.691    5428156.032
10 0 59587  50760.00000  0    5412098.048     540293.874    4493731.449
10 0 59587  50940.00000  0    6182465.944     285860.520    3394344.741
10 0 59587  51120.00000  0    6720565.484       3835.948    2170396.541
10 0 59587  51300.00000  0    7006439.224    -289145.826     866847.121
10 0 59587  51480.00000  0    7029858.254    -575672.278    -468470.903
10 0 59587  51660.00000  0    6790689.928    -838455.712   -1786656.902
10 0 59587  51840.00000  0    6298840.786   -1061232.859   -3039578.368
10 0 59587  52020.00000  0    5573786.577   -1229612.080   -4181652.822
10 0 59587  52200.00000  0    4643724.998   -1331824.786   -5171499.782
10 0 59587  52380.00000  0    3544406.419   -1359345.656   -5973400.666
10 0 59587  52560.00000  0    2317706.073   -1307359.521   -6558522.225
10 0 59587  52740.00000  0    1010007.861   -1175054.107   -6905874.511
10 0 59587  52920.00000  0    -329535.369    -965732.372   -7002992.917
10 0 59587  53100.00000  0   -1650807.901    -686743.900   -6846339.342
10 0 59587  53280.00000  0   -2904552.959    -349235.360   -6441422.635
10 0 59587  53460.00000  0   -4044160.255      32273.930   -5802634.442
10 0 59587  53640.00000  0   -5027374.230     440479.681   -4952806.751
10 0 59587  53820.00000  0   -5817876.663     856027.691   -3922482.589
10 0 59587  54000.00000  0   -6386685.268    1258375.659   -2748903.252
10 0 59587  54180.00000  0   -6713301.866    1626748.968   -1474721.222
10 0 59587  54360.00000  0   -6786547.321    1941145.928    -146472.680
10 0 59587  54540.00000  0   -6605027.079    2183342.109    1187142.498
10 0 59587  54720.00000  0   -6177186.909    2337839.266    2477095.444
10 0 59587  54900.00000  0   -5520951.407    2392709.159    3675895.511
10 0 59587  55080.00000  0   -4662957.095    2340279.528    4739402.341
10 0 59587  55260.00000  0   -3637423.156    2177625.580    5628493.259
10 0 59587  55440.00000  0   -2484728.393    1906846.486    6310518.660
10 0 59587  55620.00000  0   -1249760.347    1535114.110    6760496.988
10 0 59587  55800.00000  0      19885.026    1074489.744    6962003.107
10 0 59587  55980.00000  0    1275766.774     541521.123    6907734.793
10 0 59587  56160.00000  0    2470462.009     -43363.781    6599757.002
10 0 59587  56340.00000  0    3559368.859    -656646.635    6049421.017
10 0 59587  56520.00000  0    4502392.266   -1272667.095    5276957.643
10 0 59587  56700.00000  0    5265450.774   -1864695.937    4310749.559
10 0 59587  56880.00000  0    5821748.769   -2406090.354    3186302.274
10 0 59587  57060.00000  0    6152760.759   -2871483.520    1944936.194
10 0 59587  57240.00000  0    6248875.284   -3237951.419     632245.853
10 0 59587  57420.00000  0    6109670.480   -3486098.449    -703613.822
10 0 59587  57600.00000  0    5743802.983   -3601004.008   -2013743.401
10 0 59587  57780.00000  0    5168516.100   -3572978.870   -3250332.277
10 0 59587  57960.00000  0    4408803.432   -3398097.213   -4368422.372
10 0 59587  58140.00000  0    3496278.753   -3078483.572   -5327531.705
10 0 59587  58320.00000  0    2467816.066   -2622344.343   -6093074.864
10 0 59587  58500.00000  0    1364037.560   -2043754.490   -6637537.895
10 0 59587  58680.00000  0     227712.575   -1362212.939   -6941393.591
10 0 59587  58860.00000  0    -897875.291    -601982.100   -6993733.745
10 0 59587  59040.00000  0   -1970533.287     208758.594   -6792618.106
10 0 59587  59220.00000  0   -2950696.071    1038925.108   -6345143.379
10 0 59587  59400.00000  0   -3802850.857    1855681.081   -5667231.275
10 0 59587  59580.00000  0   -4496818.775    2625701.234   -4783137.737
10 0 59587  59760.00000  0   -5008853.704    3316512.057   -3724671.616
10 0 59587  59940.00000  0   -5322507.449    3897857.497   -2530127.812
10 0 59587  60120.00000  0   -5429222.352    4343034.176   -1242957.230
10 0 59587  60300.00000  0   -5328613.805    4630129.879      89796.526
10 0 59587  60480.00000  0   -5028416.099    4743098.120    1419240.193
10 0 59587  60660.00000  0   -4544079.238    4672601.207    2696481.285
10 0 59587  60840.00000  0   -3898030.760    4416570.567    3874492.979
10 0 59587  61020.00000  0   -3118643.869    3980455.087    4909903.990
10 0 59587  61200.00000  0   -2238971.186    3377143.233    5764635.062
10 0 59587  61380.00000  0   -1295307.531    2626564.642    6407313.740
10 0 59587  61560.00000  0    -325655.858    1754993.378    6814412.058
10 0 59587  61740.00000  0     631825.998     794090.878    6971077.617
10 0 59587  61920.00000  0    1540340.339    -220271.208    6871647.969
10 0 59587  62100.00000  0    2365872.455   -1249366.402    6519838.736
10 0 59587  62280.00000  0    3078473.478   -2253104.623    5928605.279
10 0 59587  62460.00000  0    3653363.325   -3191608.212    5119678.591
10 0 59587  62640.00000  0    4071812.560   -4026816.229    4122782.761
10 0 59587  62820.00000  0    4321770.463   -4724054.738    2974553.136
10 0 59587  63000.00000  0    4398211.611   -5253504.671    1717183.521
10 0 59587  63180.00000  0    4303183.080   -5591494.885     396848.736
10 0 59587  63360.00000  0    4045547.791   -5721553.036    -938032.570
10 0 59587  63540.00000  0    3640441.862   -5635164.111   -2238619.524
10 0 59587  63720.00000  0    3108471.820   -5332195.742   -3457476.108
10 0 59587  63900.00000  0    2474700.144   -4820973.216   -4550318.529
10 0 59587  64080.00000  0    1767473.224   -4118008.477   -5477608.836
10 0 59587  64260.00000  0    1017160.760   -3247407.686   -6205933.591
10 0 59587  64440.00000  0     254868.011   -2239999.896   -6709133.929
10 0 59587  64620.00000  0    -488829.114   -1132225.555   -6969168.036
10 0 59587  64800.00000  0   -1185075.558      35173.599   -6976693.137
10 0 59587  64980.00000  0   -1807821.289    1218617.500   -6731365.909
10 0 59587  65160.00000  0   -2334769.903    2373263.770   -6241862.056
10 0 59587  65340.00000  0   -2748165.010    3454659.374   -5525617.308
10 0 59587  65520.00000  0   -3035395.855    4420427.712   -4608285.291
10 0 59587  65700.00000  0   -3189400.471    5231937.819   -3522904.329
10 0 59587  65880.00000  0   -3208842.301    5855884.938   -2308778.903
10 0 59587  66060.00000  0   -3098049.593    6265715.167   -1010107.291
10 0 59587  66240.00000  0   -2866712.188    6442823.240     325616.540
10 0 59587  66420.00000  0   -2529345.949    6377449.328    1649365.814
10 0 59587  66600.00000  0   -2104539.533    6069215.614    2912444.899
10 0 59587  66780.00000  0   -1614018.394    5527252.417    4068349.185
10 0 59587  66960.00000  0   -1081587.915    4769920.918    5074530.544
10 0 59587  67140.00000  0    -532007.052    3824147.089    5893998.474
10 0 59587  67320.00000  0      10149.220    2724403.461    6496686.278
10 0 59587  67500.00000  0     521578.576    1511392.413    6860538.611
10 0 59587  67680.00000  0     981246.993     230492.268    6972291.007
10 0 59587  67860.00000  0    1371251.190   -1069970.716    6827926.029
10 0 59587  68040.00000  0    1677516.809   -2340563.767    6432805.706
10 0 59587  68220.00000  0    1890309.938   -3532645.062    5801474.826
10 0 59587  68400.00000  0    2004544.292   -4600250.623    4957136.573
10 0 59587  68580.00000  0    2019875.102   -5501896.672    3930813.652
10 0 59587  68760.00000  0    1940581.053   -6202235.298    2760219.042
10 0 59587  68940.00000  0    1775232.096   -6673486.568    1488359.415
10 0 59587  69120.00000  0    1536163.113   -6896575.144     161929.767
10 0 59587  69300.00000  0    1238777.916   -6861922.569   -1170441.332
10 0 59587  69480.00000  0     900715.049   -6569843.608   -2460028.537
10 0 59587  69660.00000  0     540924.544   -6030518.731   -3659829.405
10 0 59587  69840.00000  0     178712.686   -5263567.684   -4726286.261
10 0 59587  70020.00000  0    -167201.706   -4297254.503   -5620844.220
10 0 59587  70200.00000  0    -479573.341   -3167375.111   -6311289.485
10 0 59587  70380.00000  0    -743418.482   -1915886.219   -6772834.854
10 0 59587  70560.00000  0    -946675.531    -589337.369   -6988931.680
10 0 59587  70740.00000  0   -1080716.658     762835.396   -6951802.845
10 0 59587  70920.00000  0   -1140694.938    2090102.096   -6662693.684
10 0 59587  71100.00000  0   -1125718.588    3342669.139   -6131844.083
10 0 59587  71280.00000  0   -1038847.211    4473306.553   -5378181.824
10 0 59587  71460.00000  0    -886908.146    5439121.568   -4428728.015
10 0 59587  71640.00000  0    -680137.626    6203218.405   -3317713.310
10 0 59587  71820.00000  0    -431655.726    6736173.651   -2085412.758
10 0 59587  72000.00000  0    -156793.144    7017257.831    -776726.993
10 0 59587  72180.00000  0     127701.638    7035334.626     560451.143
99
